ONEWEB-0331             
1 49198U 21083N   25007.62780508  .00000064  00000+0  12854-3 0  9997
2 49198  87.9097  80.0148 0002061  96.2054 263.9313 13.18686928160746
ONEWEB-0333             
1 49199U 21083P   25007.59124904  .00000265  00000+0  69098-3 0  9991
2 49199  87.8910  64.7883 0001767 104.2279 255.9047 13.13474165161914
ONEWEB-0334             
1 49200U 21083Q   25007.73682682  .00000142  00000+0  31781-3 0  9994
2 49200  87.9238  19.0081 0000923 106.4204 253.7030 13.20769510167439
ONEWEB-0335             
1 49201U 21083R   25007.58648584 -.00000190  00000+0 -55587-3 0  9996
2 49201  87.8909  64.7777 0001959  92.4863 267.6490 13.13470125161923
ONEWEB-0336             
1 49202U 21083S   25007.55634256 -.00000226  00000+0 -65256-3 0  9999
2 49202  87.8908  64.7776 0001689  96.5725 263.5596 13.13469905161919
ONEWEB-0337             
1 49203U 21083T   25007.56571861 -.00000564  00000+0 -15789-2 0  9993
2 49203  87.8907  64.7741 0002044  99.3310 260.8051 13.13470013161916
ONEWEB-0338             
1 49204U 21083U   25007.74393084  .00000131  00000+0  29137-3 0  9994
2 49204  87.9245  19.0024 0001518 100.6760 259.4544 13.20772294167450
ONEWEB-0339             
1 49205U 21083V   25007.57696935 -.00000127  00000+0 -38229-3 0  9996
2 49205  87.8909  64.7641 0001932 103.0880 257.0464 13.13470613161898
